[{"OBJECT_NAME":"STARLINK-6087","OBJECT_ID":"2023-078AL","EPOCH":"2026-03-09T22:30:04.617216","MEAN_MOTION":14.9831354,"ECCENTRICITY":0.0002879,"INCLINATION":70.0002,"RA_OF_ASC_NODE":323.7109,"ARG_OF_PERICENTER":265.7258,"MEAN_ANOMALY":94.3572,"EPHEMERIS_TYPE":0,"CLASSIFICATION_TYPE":"U","NORAD_CAT_ID":56801,"ELEMENT_SET_NO":999,"REV_AT_EPOCH":15321,"BSTAR":-0.00023492669,"MEAN_MOTION_DOT":-2.894e-5,"MEAN_MOTION_DDOT":0},{"OBJECT_NAME":"ICEYE-X39","OBJECT_ID":"2024-149CG","EPOCH":"2026-03-09T17:17:30.183072","MEAN_MOTION":14.99225125,"ECCENTRICITY":0.0005274,"INCLINATION":97.6853,"RA_OF_ASC_NODE":147.0953,"ARG_OF_PERICENTER":52.5538,"MEAN_ANOMALY":307.6164,"EPHEMERIS_TYPE":0,"CLASSIFICATION_TYPE":"U","NORAD_CAT_ID":60546,"ELEMENT_SET_NO":999,"REV_AT_EPOCH":8521,"BSTAR":0.00029320082,"MEAN_MOTION_DOT":3.515e-5,"MEAN_MOTION_DDOT":0}]
